ADRAS-J                 
1 58992U 24034A   24200.85290616  .00006774  00000+0  62025-3 0  9992
2 58992  98.2125 175.3194 0043201 306.4515  53.2725 14.94595234 22594
